NORAD_CAT_ID,OBJECT_NAME,OBJECT_TYPE,EPOCH,MEAN_MOTION,ECCENTRICITY,INCLINATION,RA_OF_ASC_NODE,ARG_OF_PERICENTER,MEAN_ANOMALY,BSTAR,MEAN_MOTION_DOT,MEAN_MOTION_DDOT,TLE_LINE0,TLE_LINE1,TLE_LINE2,SEMIMAJOR_AXIS,PERIOD,APOGEE,PERIGEE,DECAYED
53596.0,STARLINK-4668,PAYLOAD,2023-02-14 09:55:18,15.0883419,0.0001289,53.2133,228.6423,90.8723,269.2417,8.1101e-05,1.003e-05,0.0,0 STARLINK-4668,1 53596U 22104J   23045.41340711  .00001003  00000-0  81101-4 0  9991,2 53596  53.2133 228.6423 0001289  90.8723 269.2417 15.08834190 25954,6917.898,95.438,540.655,538.871,0.0
53596.0,STARLINK-4668,PAYLOAD,2023-02-14 14:41:27,15.08834438,0.0001275,53.2134,227.7502,89.9212,270.1927,7.7631e-05,9.48e-06,0.0,0 STARLINK-4668,1 53596U 22104J   23045.61212745  .00000948  00000-0  77631-4 0  9998,2 53596  53.2134 227.7502 0001275  89.9212 270.1927 15.08834438 26672,6917.897,95.438,540.644,538.88,0.0
53596.0,STARLINK-4668,PAYLOAD,2023-02-15 11:21:28,15.08840775,0.000123,53.2134,223.8844,89.8028,270.3105,0.00012405,1.687e-05,0.0,0 STARLINK-4668,1 53596U 22104J   23046.47324503  .00001687  00000-0  12405-3 0  9997,2 53596  53.2134 223.8844 0001230  89.8028 270.3105 15.08840775 26113,6917.878,95.438,540.594,538.892,0.0
53596.0,STARLINK-4668,PAYLOAD,2023-02-15 12:56:51,15.08840982,0.0001248,53.2132,223.5867,89.1264,270.9871,0.00012875,1.762e-05,0.0,0 STARLINK-4668,1 53596U 22104J   23046.53948498  .00001762  00000-0  12875-3 0  9994,2 53596  53.2132 223.5867 0001248  89.1264 270.9871 15.08840982 26810,6917.877,95.437,540.606,538.879,0.0
53596.0,STARLINK-4668,PAYLOAD,2023-02-15 17:43:00,15.08850234,0.0001117,53.2137,222.6949,90.7971,269.3149,0.00025455,3.767e-05,0.0,0 STARLINK-4668,1 53596U 22104J   23046.73820000  .00003767  00000-0  25455-3 0  9999,2 53596  53.2137 222.6949 0001117  90.7971 269.3149 15.08850234 26848,6917.849,95.437,540.487,538.941,0.0
53596.0,STARLINK-4668,PAYLOAD,2023-02-16 11:12:15,15.08845171,0.0001159,53.2131,219.4225,99.3158,260.7966,0.00022284,3.261e-05,0.0,0 STARLINK-4668,1 53596U 22104J   23047.46684144  .00003261  00000-0  22284-3 0  9993,2 53596  53.2131 219.4225 0001159  99.3158 260.7966 15.08845171 26263,6917.865,95.437,540.531,538.928,0.0
53596.0,STARLINK-4668,PAYLOAD,2023-02-16 20:44:33,15.08853588,0.0001135,53.2148,217.6402,76.3513,283.7605,0.00028256,4.214e-05,0.0,0 STARLINK-4668,1 53596U 22104J   23047.86427736  .00004214  00000-0  28256-3 0  9993,2 53596  53.2148 217.6402 0001135  76.3513 283.7605 15.08853588 27012,6917.839,95.437,540.489,538.919,0.0
53596.0,STARLINK-4668,PAYLOAD,2023-02-17 06:16:52,15.08833441,0.0001123,53.2135,215.8552,87.2448,272.8673,-8.0508e-05,-1.569e-05,0.0,0 STARLINK-4668,1 53596U 22104J   23048.26172427 -.00001569  00000-0 -80508-4 0  9993,2 53596  53.2135 215.8552 0001123  87.2448 272.8673 15.08833441 26388,6917.9,95.438,540.542,538.989,0.0
53596.0,STARLINK-4668,PAYLOAD,2023-02-17 12:38:25,15.08832046,0.0001118,53.2134,214.6658,85.7515,274.3605,-9.7781e-05,-1.843e-05,0.0,0 STARLINK-4668,1 53596U 22104J   23048.52668546 -.00001843  00000-0 -97781-4 0  9990,2 53596  53.2134 214.6658 0001118  85.7515 274.3605 15.08832046 27117,6917.905,95.438,540.543,538.996,0.0
53596.0,STARLINK-4668,PAYLOAD,2023-02-17 18:59:58,15.08833697,0.0001087,53.2134,213.4758,90.5208,269.5909,0.00013288,1.827e-05,0.0,0 STARLINK-4668,1 53596U 22104J   23048.79164629  .00001827  00000-0  13288-3 0  9991,2 53596  53.2134 213.4758 0001087  90.5208 269.5909 15.08833697 27153,6917.9,95.438,540.517,539.013,0.0
53596.0,STARLINK-4668,PAYLOAD,2023-02-18 10:53:49,15.08837162,0.0001135,53.2141,210.5029,77.3037,282.8082,0.00026859,3.989e-05,0.0,0 STARLINK-4668,1 53596U 22104J   23049.45404924  .00003989  00000-0  26859-3 0  9999,2 53596  53.2141 210.5029 0001135  77.3037 282.8082 15.08837162 26562,6917.889,95.438,540.539,538.969,0.0
53596.0,STARLINK-4668,PAYLOAD,2023-02-18 22:01:31,15.08854328,0.0001116,53.2146,208.4214,77.097,283.0147,0.00074053,0.00011522,0.0,0 STARLINK-4668,1 53596U 22104J   23049.91772580  .00011522  00000-0  74053-3 0  9997,2 53596  53.2146 208.4214 0001116  77.0970 283.0147 15.08854328 26637,6917.837,95.437,540.474,538.93,0.0
53596.0,STARLINK-4668,PAYLOAD,2023-02-19 13:55:23,15.08847088,0.0001116,53.2149,205.4474,87.217,272.895,0.00034378,5.189e-05,0.0,0 STARLINK-4668,1 53596U 22104J   23050.58012747  .00005189  00000-0  34378-3 0  9992,2 53596  53.2149 205.4474 0001116  87.2170 272.8950 15.08847088 26734,6917.859,95.437,540.496,538.952,0.0
53596.0,STARLINK-4668,PAYLOAD,2023-02-20 02:38:28,15.08839396,0.0001285,53.2158,203.0682,87.7782,272.3357,0.00016665,2.365e-05,0.0,0 STARLINK-4668,1 53596U 22104J   23051.11004732  .00002365  00000-0  16665-3 0  9999,2 53596  53.2158 203.0682 0001285  87.7782 272.3357 15.08839396 26818,6917.882,95.438,540.636,538.858,0.0
53596.0,STARLINK-4668,PAYLOAD,2023-02-20 13:46:10,15.08839385,0.0001132,53.2155,200.9869,95.7982,264.3139,0.00044142,6.744e-05,0.0,0 STARLINK-4668,1 53596U 22104J   23051.57372892  .00006744  00000-0  44142-3 0  9990,2 53596  53.2155 200.9869 0001132  95.7982 264.3139 15.08839385 27571,6917.882,95.438,540.53,538.964,0.0
53596.0,STARLINK-4668,PAYLOAD,2023-02-21 13:36:56,15.08855192,9.81e-05,53.2152,196.5266,96.8381,263.2723,0.0008007,0.00012483,0.0,0 STARLINK-4668,1 53596U 22104J   23052.56732612  .00012483  00000-0  80070-3 0  9997,2 53596  53.2152 196.5266 0000981  96.8381 263.2723 15.08855192 27037,6917.834,95.437,540.378,539.02,0.0
53596.0,STARLINK-4668,PAYLOAD,2023-02-21 19:58:29,15.08870059,8.72e-05,53.2155,195.337,82.3465,277.7626,0.0011014,0.00017299,0.0,0 STARLINK-4668,1 53596U 22104J   23052.83228148  .00017299  00000-0  11014-2 0  9992,2 53596  53.2155 195.3370 0000872  82.3465 277.7626 15.08870059 27766,6917.789,95.436,540.257,539.05,0.0
53596.0,STARLINK-4668,PAYLOAD,2023-02-22 02:20:01,15.08850071,9.04e-05,53.2157,194.1474,91.5274,268.5822,0.00042584,6.498e-05,0.0,0 STARLINK-4668,1 53596U 22104J   23053.09724435  .00006498  00000-0  42584-3 0  9997,2 53596  53.2157 194.1474 0000904  91.5274 268.5822 15.08850071 27113,6917.85,95.437,540.34,539.089,0.0
53596.0,STARLINK-4668,PAYLOAD,2023-02-22 13:27:43,15.08843825,0.0001117,53.2149,192.0663,98.0032,262.1087,0.00031684,4.759e-05,0.0,0 STARLINK-4668,1 53596U 22104J   23053.56092457  .00004759  00000-0  31684-3 0  9998,2 53596  53.2149 192.0663 0001117  98.0032 262.1087 15.08843825 27877,6917.869,95.437,540.506,538.961,0.0
53596.0,STARLINK-4668,PAYLOAD,2023-02-22 21:24:39,15.08858775,0.0001247,53.215,190.5788,87.6268,272.4867,0.00079079,0.00012326,0.0,0 STARLINK-4668,1 53596U 22104J   23053.89212151  .00012326  00000-0  79079-3 0  9998,2 53596  53.2150 190.5788 0001247  87.6268 272.4867 15.08858775 27925,6917.823,95.436,540.551,538.825,0.0
53596.0,STARLINK-4668,PAYLOAD,2023-02-23 02:10:48,15.08829801,8.31e-05,53.215,189.6871,122.1946,237.9127,-0.00028371,-4.799e-05,0.0,0 STARLINK-4668,1 53596U 22104J   23054.09084352 -.00004799  00000-0 -28371-3 0  9997,2 53596  53.2150 189.6871 0000831 122.1946 237.9127 15.08829801 27263,6917.912,95.438,540.351,539.202,0.0
53596.0,STARLINK-4668,PAYLOAD,2023-02-23 18:04:40,15.08852167,0.0001304,53.2153,186.7128,101.4645,258.6493,0.0013041,0.00020535,0.0,0 STARLINK-4668,1 53596U 22104J   23054.75324727  .00020535  00000-0  13041-2 0  9994,2 53596  53.2153 186.7128 0001304 101.4645 258.6493 15.08852167 28056,6917.843,95.437,540.61,538.806,0.0
53596.0,STARLINK-4668,PAYLOAD,2023-02-23 21:15:26,15.08875907,0.0001095,53.2149,186.1187,85.097,275.0148,0.0027676,0.00044077,0.0,0 STARLINK-4668,1 53596U 22104J   23054.88572421  .00044077  00000-0  27676-2 0  9990,2 53596  53.2149 186.1187 0001095  85.0970 275.0148 15.08875907 27387,6917.771,95.435,540.393,538.878,0.0
53596.0,STARLINK-4668,PAYLOAD,2023-02-24 02:01:35,15.08874138,1.18e-05,53.2153,185.2273,164.4675,195.6321,0.0015597,0.00024645,0.0,0 STARLINK-4668,1 53596U 22104J   23055.08443742  .00024645  00000-0  15597-2 0  9994,2 53596  53.2153 185.2273 0000118 164.4675 195.6321 15.08874138 27416,6917.776,95.435,539.723,539.559,0.0
53596.0,STARLINK-4668,PAYLOAD,2023-02-24 13:09:18,15.08834584,0.0001372,53.216,183.1442,101.7217,258.3929,0.00030858,4.626e-05,0.0,0 STARLINK-4668,1 53596U 22104J   23055.54812893  .00004626  00000-0  30858-3 0  9997,2 53596  53.2160 183.1442 0001372 101.7217 258.3929 15.08834584 27487,6917.897,95.438,540.711,538.813,0.0
53596.0,STARLINK-4668,PAYLOAD,2023-02-24 19:30:51,15.0882235,0.0001264,53.2151,181.9555,102.7577,257.3556,0.00078578,0.00012234,0.0,0 STARLINK-4668,1 53596U 22104J   23055.81309478  .00012234  00000-0  78578-3 0  9992,2 53596  53.2151 181.9555 0001264 102.7577 257.3556 15.08822350 27526,6917.934,95.439,540.674,538.925,0.0
53596.0,STARLINK-4668,PAYLOAD,2023-02-25 13:00:06,15.08849543,0.0001347,53.2149,178.6851,93.3152,266.7994,0.0012905,0.00020315,0.0,0 STARLINK-4668,1 53596U 22104J   23056.54173806  .00020315  00000-0  12905-2 0  9997,2 53596  53.2149 178.6851 0001347  93.3152 266.7994 15.08849543 28323,6917.851,95.437,540.648,538.784,0.0
53596.0,STARLINK-4668,PAYLOAD,2023-02-25 17:46:15,15.08861734,0.0001398,53.2151,177.794,87.5651,272.5501,0.0015186,0.00023978,0.0,0 STARLINK-4668,1 53596U 22104J   23056.74045557  .00023978  00000-0  15186-2 0  9992,2 53596  53.2151 177.7940 0001398  87.5651 272.5501 15.08861734 27661,6917.814,95.436,540.646,538.712,0.0
53596.0,STARLINK-4668,PAYLOAD,2023-02-26 11:15:29,15.0886396,0.0001327,53.2152,174.5218,85.7272,274.3871,0.0015092,0.00023828,0.0,0 STARLINK-4668,1 53596U 22104J   23057.46909279  .00023828  00000-0  15092-2 0  9992,2 53596  53.2152 174.5218 0001327  85.7272 274.3871 15.08863960 28468,6917.807,95.436,540.59,538.754,0.0
53596.0,STARLINK-4668,PAYLOAD,2023-02-26 17:37:01,15.08878383,0.0001249,53.2154,173.3322,91.9177,268.1958,0.0018376,0.00029109,0.0,0 STARLINK-4668,1 53596U 22104J   23057.73404668  .00029109  00000-0  18376-2 0  9990,2 53596  53.2154 173.3322 0001249  91.9177 268.1958 15.08878383 27819,6917.763,95.435,540.492,538.764,0.0
